STARLINK-3550           
1 52373U 22045AU  22127.50001157 -.00880430  00000+0 -53743-2 0  9994
2 52373  53.2175  38.6125 0001126  94.9528 150.7994 15.79013150  3748
STARLINK-3762           
1 52374U 22045AV  22126.91667824 -.00875228  00000+0 -50805-2 0  9993
2 52374  53.2177  41.5272 0001153  82.6328  83.7571 15.80094340  3657
STARLINK-3785           
1 52375U 22045AW  22127.50001157 -.00880379  00000+0 -53881-2 0  9991
2 52375  53.2175  38.6148 0001128  84.5335 160.0647 15.78955577  3744
STARLINK-3767           
1 52376U 22045AX  22126.91667824 -.00875101  00000+0 -50663-2 0  9997
2 52376  53.2177  41.5250 0001150  79.2631  88.1592 15.80151489  3651
STARLINK-3805           
1 52377U 22045AY  22127.50001157 -.00880457  00000+0 -53693-2 0  9991
2 52377  53.2175  38.6116 0001131  81.2349 164.8801 15.79034215  3735
STARLINK-3806           
1 52378U 22045AZ  22127.50001157 -.00880576  00000+0 -53554-2 0  9990
2 52378  53.2175  38.6087 0001122  87.9974 159.2359 15.79094263  3746
STARLINK-3800           
1 52379U 22045BA  22126.91667824 -.00875120  00000+0 -50617-2 0  9990
2 52379  53.2177  41.5248 0001147  85.6772  82.0729 15.80171709  3656
STARLINK-3793           
1 52380U 22045BB  22126.91667824 -.00875381  00000+0 -50450-2 0  9996
2 52380  53.2177  41.5213 0001156  87.0877  81.9997 15.80250226  3659
STARLINK-3803           
1 52381U 22045BC  22127.50001157 -.00880403  00000+0 -53492-2 0  9994
2 52381  53.2175  38.6085 0001137  76.3851 171.2126 15.79114720  3747
STARLINK-3799           
1 52382U 22045BD  22127.50001157 -.00880465  00000+0 -53454-2 0  9991
2 52382  53.2175  38.6069 0001130  78.6165 169.3826 15.79132010  3743
STARLINK-3811           
1 52383U 22045BE  22127.50001157 -.00880578  00000+0 -53366-2 0  9999
2 52383  53.2175  38.6060 0001127  81.4905 167.2579 15.79171152  3747
FALCON 9 DEB            
1 52384U 22045BF  22126.49951806  .00219325  28407-4  75098-3 0  9999
2 52384  53.2109  43.5051 0011958 286.9434  73.0282 15.89209533  1055
FALCON 9 DEB            
1 52385U 22045BG  22126.49805881  .00225402  29488-4  75615-3 0  9999
2 52385  53.2114  43.4976 0011908 299.6350  60.3491 15.89607196  1058
FALCON 9 DEB            
1 52386U 22045BH  22126.49383111  .00238280  31977-4  75831-3 0  9991
2 52386  53.2123  43.4740 0007343 287.6669  72.3556 15.90704611  1053
FALCON 9 DEB            
1 52387U 22045BJ  22126.49230194  .00254341  35064-4  79114-3 0  9999
2 52387  53.2127  43.4664 0006923 312.1246  47.9192 15.91137886  1049
2022-046A               
1 52388U 22046A   22127.49754237  .00002404  00000+0  15464-3 0  9997
2 52388  97.5414 215.4903 0012354 255.8203 198.2039 15.09290118  1113
2022-046B               
1 52389U 22046B   22127.56570105  .00004238  00000+0  26774-3 0  9999
2 52389  97.5412 215.5597 0011455 265.4374 204.8655 15.09542964  1116
2022-046C               
1 52390U 22046C   22127.49615263  .00004043  00000+0  25516-3 0  9995
2 52390  97.5344 215.4865 0012433 263.9936 190.0569 15.09596291  1104
2022-046D               
1 52391U 22046D   22127.49537441  .00004200  00000+0  26371-3 0  9992
2 52391  97.5472 215.4987 0012912 267.1293 186.9098 15.09756505  1103
2022-046E               
1 52392U 22046E   22127.49485088  .00004218  00000+0  26402-3 0  9996
2 52392  97.5396 215.4934 0013960 266.6901 187.2353 15.09859843  1102
CZ-11 R/B               
1 52393U 22046F   22127.22843435  .00673565  22941-5  41385-3 0  9990
2 52393  97.2930 215.5399 0288960 296.2919  60.8920 15.67945301  1118
2022-048A               
1 52443U 22048A   22127.55969528  .00003177  00000+0  20262-3 0  9999
2 52443  97.6823 192.1468 0011661 260.1594 205.7125 15.09402299   371
2022-048B               
1 52444U 22048B   22127.55961146  .00004568  00000+0  28898-3 0  9996
2 52444  97.6831 192.1440 0012702 261.2894 204.5790 15.09456449   385
2022-048C               
1 52445U 22048C   22127.55943962  .00004789  00000+0  30198-3 0  9994
2 52445  97.6800 192.1455 0013029 263.3531 202.3452 15.09543383   387
2022-048D               
1 52446U 22048D   22127.55952441  .00005233  00000+0  32931-3 0  9999
2 52446  97.6824 192.1429 0013331 263.3939 202.9968 15.09570224   385
2022-048E               
1 52447U 22048E   22127.48397289 -.00004346  00000+0 -26593-3 0  9998
2 52447  97.6809 192.0679 0013323 265.3196 151.3875 15.09628955   371
2022-048F               
1 52448U 22048F   22127.56551086 -.00001604  00000+0 -95224-4 0  9997
2 52448  97.6794 192.1520 0012451 267.5785 233.0622 15.09757145   383
2022-048G               
1 52449U 22048G   22127.56553848  .00003921  00000+0  24639-3 0  9999
2 52449  97.6824 192.1526 0012847 266.9055 234.0816 15.09788634   389
2022-048H               
1 52450U 22048H   22127.56547168  .00001477  00000+0  95310-4 0  9998
2 52450  97.6817 192.1504 0012854 268.2381 232.7199 15.09822555   384
